COSMOS 1933             
1 18958U 88020A   25356.18448123  .00004277  00000+0  21380-3 0  9997
2 18958  82.5139 327.5457 0006222 103.3358 256.8570 15.17183577 38479
SL-3 R/B                
1 19046U 88032B   25356.08530058  .00005301  00000+0  25540-3 0  9998
2 19046  97.5088 334.7413 0027686 141.1672 219.1558 15.18829054 40328
SL-16 R/B               
1 19120U 88039B   25356.04819300  .00000167  00000+0  10184-3 0  9997
2 19120  71.0132 232.7169 0019552 100.3436 259.9894 14.19598874947369
COSMOS 1953             
1 19210U 88050A   25351.75027580  .00004793  00000+0  17925-3 0  9993
2 19210  82.5093 240.5536 0013540  56.0210 304.2313 15.26995692 25270
SL-8 R/B                
1 19257U 88053B   25356.15479306  .00000252  00000+0  90045-4 0  9994
2 19257  74.0471 255.3679 0018969  95.8963  67.8211 14.38864696965447
COSMOS 1975             
1 19573U 88093A   25355.95786576  .00006472  00000+0  24549-3 0  9991
2 19573  82.5191 195.5996 0013036  83.6720 276.6003 15.26591092  7546
SL-14 R/B               
1 19574U 88093B   25356.09130134  .00000497  00000+0  54614-4 0  9999
2 19574  82.5315 114.8918 0019340 296.7936 236.4026 14.85558666989512
SL-16 R/B               
1 19650U 88102B   25356.13554291  .00000250  00000+0  15061-3 0  9993
2 19650  71.0004 314.6730 0012523 135.7689 224.4438 14.16140737915917
INTERCOSMOS 24          
1 20261U 89080A   25355.72161858  .00000605  00000+0  16908-3 0  9991
2 20261  82.6051 155.1132 1188992 113.6931 259.3374 12.59453795656982
SL-14 R/B               
1 20262U 89080C   25356.10491222  .00000337  00000+0  97395-4 0  9998
2 20262  82.5917 223.0089 1230498   2.1880 358.3941 12.50420748650452
DELTA 1 R/B             
1 20323U 89089B   25356.15890169  .00000321  00000+0  88158-4 0  9993
2 20323  97.0745 210.9033 0069384   8.8387 351.4014 14.50579427884491
ARIANE 40 R/B           
1 20443U 90005H   25356.12095834  .00000266  00000+0  98341-4 0  9992
2 20443  98.3230  54.0334 0011255  80.4678 279.7782 14.39805153881644
